{"fetched_at": "2026-05-20T19:27:21.965479+00:00", "line1": "1 64527U 25131D   26105.75877182 -.00000243  00000+0  00000+0 0  9993", "line2": "2 64527   0.2177  60.2939 3657276  39.3931 123.2752  1.00252337  2980"}
